{"type": "FeatureCollection", "features": [ {"type": "Feature", "properties": {"norad_id": 66856, "name": "STARLINK-36072", "group": "last-30-days", "lat": -34.52911988178611, "lon": 53.62741253045081, "alt_km": 325.69304872763587, "timestamp": "2025-12-16T03:53:25.817440+00:00", "meta": {"OBJECT_NAME": "STARLINK-36072", "OBJECT_ID": "2025-281J", "EPOCH": "2025-12-15T06:00:04.999968", "MEAN_MOTION": 15.8462095, "ECCENTRICITY": 0.00014824, "INCLINATION": 43.0003, "RA_OF_ASC_NODE": 106.8223, "ARG_OF_PERICENTER": 272.9784, "MEAN_ANOMALY": 225.4212, "EPHEMERIS_TYPE": 0, "CLASSIFICATION_TYPE": "U", "NORAD_CAT_ID": 66856, "ELEMENT_SET_NO": 999, "REV_AT_EPOCH": 180, "BSTAR": -0.0056909859, "MEAN_MOTION_DOT": -0.01206727, "MEAN_MOTION_DDOT": 0}, "tle": {"line1": "1 66856U 25281J   25349.25005787 -.01206727  00000+0 -56910-2 0  9995", "line2": "2 66856  43.0003 106.8223 0001482 272.9784 225.4212 15.84620950  1806"}}, "geometry": {"type": "Point", "coordinates": [53.62741253045081, -34.52911988178611]}}, {"type": "Feature", "properties": {"norad_id": 66857, "name": "STARLINK-36083", "group": "last-30-days", "lat": -33.36672538822401, "lon": 56.244241125558055, "alt_km": 325.63978405746457, "timestamp": "2025-12-16T03:53:25.817450+00:00", "meta": {"OBJECT_NAME": "STARLINK-36083", "OBJECT_ID": "2025-281K", "EPOCH": "2025-12-15T06:00:04.999968", "MEAN_MOTION": 15.84616766, "ECCENTRICITY": 0.0001525, "INCLINATION": 43.0001, "RA_OF_ASC_NODE": 106.8162, "ARG_OF_PERICENTER": 275.0036, "MEAN_ANOMALY": 225.8981, "EPHEMERIS_TYPE": 0, "CLASSIFICATION_TYPE": "U", "NORAD_CAT_ID": 66857, "ELEMENT_SET_NO": 999, "REV_AT_EPOCH": 180, "BSTAR": -0.0057202929, "MEAN_MOTION_DOT": -0.01212059, "MEAN_MOTION_DDOT": 0}, "tle": {"line1": "1 66857U 25281K   25349.25005787 -.01212059  00000+0 -57203-2 0  9997", "line2": "2 66857  43.0001 106.8162 0001525 275.0036 225.8981 15.84616766  1806"}}, "geometry": {"type": "Point", "coordinates": [56.244241125558055, -33.36672538822401]}}, {"type": "Feature", "properties": {"norad_id": 66858, "name": "STARLINK-35118", "group": "last-30-days", "lat": -32.11487603531352, "lon": 58.86291808951932, "alt_km": 325.70194587429796, "timestamp": "2025-12-16T03:53:25.817461+00:00", "meta": {"OBJECT_NAME": "STARLINK-35118", "OBJECT_ID": "2025-281L", "EPOCH": "2025-12-15T06:00:04.999968", "MEAN_MOTION": 15.84616419, "ECCENTRICITY": 0.00014881, "INCLINATION": 43.0004, "RA_OF_ASC_NODE": 106.8091, "ARG_OF_PERICENTER": 276.3573, "MEAN_ANOMALY": 227.1519, "EPHEMERIS_TYPE": 0, "CLASSIFICATION_TYPE": "U", "NORAD_CAT_ID": 66858, "ELEMENT_SET_NO": 999, "REV_AT_EPOCH": 159, "BSTAR": -0.0058183479, "MEAN_MOTION_DOT": -0.01230457, "MEAN_MOTION_DDOT": 0}, "tle": {"line1": "1 66858U 25281L   25349.25005787 -.01230457  00000+0 -58183-2 0  9998", "line2": "2 66858  43.0004 106.8091 0001488 276.3573 227.1519 15.84616419  1592"}}, "geometry": {"type": "Point", "coordinates": [58.86291808951932, -32.11487603531352]}}, {"type": "Feature", "properties": {"norad_id": 66859, "name": "STARLINK-35646", "group": "last-30-days", "lat": -30.726862862890936, "lon": 61.566364746562705, "alt_km": 325.94134178721924, "timestamp": "2025-12-16T03:53:25.817471+00:00", "meta": {"OBJECT_NAME": "STARLINK-35646", "OBJECT_ID": "2025-281M", "EPOCH": "2025-12-15T06:00:04.999968", "MEAN_MOTION": 15.84613719, "ECCENTRICITY": 0.00014832, "INCLINATION": 43.0002, "RA_OF_ASC_NODE": 106.8022, "ARG_OF_PERICENTER": 273.364, "MEAN_ANOMALY": 233.0016, "EPHEMERIS_TYPE": 0, "CLASSIFICATION_TYPE": "U", "NORAD_CAT_ID": 66859, "ELEMENT_SET_NO": 999, "REV_AT_EPOCH": 180, "BSTAR": -0.0060457359, "MEAN_MOTION_DOT": -0.01272775, "MEAN_MOTION_DDOT": 0}, "tle": {"line1": "1 66859U 25281M   25349.25005787 -.01272775  00000+0 -60457-2 0  9995", "line2": "2 66859  43.0002 106.8022 0001483 273.3640 233.0016 15.84613719  1804"}}, "geometry": {"type": "Point", "coordinates": [61.566364746562705, -30.726862862890936]}}, {"type": "Feature", "properties": {"norad_id": 66860, "name": "STARLINK-35987", "group": "last-30-days", "lat": -22.96439164815699, "lon": 74.11715227206045, "alt_km": 327.0371065820891, "timestamp": "2025-12-16T03:53:25.817481+00:00", "meta": {"OBJECT_NAME": "STARLINK-35987", "OBJECT_ID": "2025-281N", "EPOCH": "2025-12-15T06:00:04.999968", "MEAN_MOTION": 15.84434087, "ECCENTRICITY": 0.00014154, "INCLINATION": 43.0003, "RA_OF_ASC_NODE": 106.7651, "ARG_OF_PERICENTER": 264.7601, "MEAN_ANOMALY": 256.268, "EPHEMERIS_TYPE": 0, "CLASSIFICATION_TYPE": "U", "NORAD_CAT_ID": 66860, "ELEMENT_SET_NO": 999, "REV_AT_EPOCH": 180, "BSTAR": -0.0067571964, "MEAN_MOTION_DOT": -0.01392336, "MEAN_MOTION_DDOT": 0}, "tle": {"line1": "1 66860U 25281N   25349.25005787 -.01392336  00000+0 -67572-2 0  9998", "line2": "2 66860  43.0003 106.7651 0001415 264.7601 256.2680 15.84434087  1803"}}, "geometry": {"type": "Point", "coordinates": [74.11715227206045, -22.96439164815699]}}, {"type": "Feature", "properties": {"norad_id": 66861, "name": "STARLINK-35991", "group": "last-30-days", "lat": -27.786991518187282, "lon": 66.7496143362164, "alt_km": 326.5059042439816, "timestamp": "2025-12-16T03:53:25.817492+00:00", "meta": {"OBJECT_NAME": "STARLINK-35991", "OBJECT_ID": "2025-281P", "EPOCH": "2025-12-15T06:00:04.999968", "MEAN_MOTION": 15.84581912, "ECCENTRICITY": 0.00015033, "INCLINATION": 43.0004, "RA_OF_ASC_NODE": 106.7876, "ARG_OF_PERICENTER": 268.2037, "MEAN_ANOMALY": 243.983, "EPHEMERIS_TYPE": 0, "CLASSIFICATION_TYPE": "U", "NORAD_CAT_ID": 66861, "ELEMENT_SET_NO": 999, "REV_AT_EPOCH": 180, "BSTAR": -0.006530086, "MEAN_MOTION_DOT": -0.01360042, "MEAN_MOTION_DDOT": 0}, "tle": {"line1": "1 66861U 25281P   25349.25005787 -.01360042  00000+0 -65301-2 0  9996", "line2": "2 66861  43.0004 106.7876 0001503 268.2037 243.9830 15.84581912  1804"}}, "geometry": {"type": "Point", "coordinates": [66.7496143362164, -27.786991518187282]}}, {"type": "Feature", "properties": {"norad_id": 66862, "name": "STARLINK-35974", "group": "last-30-days", "lat": -29.233951398278332, "lon": 64.28017015150506, "alt_km": 326.2474759471952, "timestamp": "2025-12-16T03:53:25.817504+00:00", "meta": {"OBJECT_NAME": "STARLINK-35974", "OBJECT_ID": "2025-281Q", "EPOCH": "2025-12-15T06:00:04.999968", "MEAN_MOTION": 15.84605068, "ECCENTRICITY": 0.00014713, "INCLINATION": 43.0003, "RA_OF_ASC_NODE": 106.7947, "ARG_OF_PERICENTER": 274.1585, "MEAN_ANOMALY": 235.2483, "EPHEMERIS_TYPE": 0, "CLASSIFICATION_TYPE": "U", "NORAD_CAT_ID": 66862, "ELEMENT_SET_NO": 999, "REV_AT_EPOCH": 170, "BSTAR": -0.006383427, "MEAN_MOTION_DOT": -0.01334586, "MEAN_MOTION_DDOT": 0}, "tle": {"line1": "1 66862U 25281Q   25349.25005787 -.01334586  00000+0 -63834-2 0  9990", "line2": "2 66862  43.0003 106.7947 0001471 274.1585 235.2483 15.84605068  1707"}}, "geometry": {"type": "Point", "coordinates": [64.28017015150506, -29.233951398278332]}}, {"type": "Feature", "properties": {"norad_id": 66863, "name": "STARLINK-36134", "group": "last-30-days", "lat": -25.992587254132147, "lon": 69.62925413490191, "alt_km": 326.7197045178518, "timestamp": "2025-12-16T03:53:25.817514+00:00", "meta": {"OBJECT_NAME": "STARLINK-36134", "OBJECT_ID": "2025-281R", "EPOCH": "2025-12-15T06:00:04.999968", "MEAN_MOTION": 15.84506518, "ECCENTRICITY": 0.00014372, "INCLINATION": 43.0007, "RA_OF_ASC_NODE": 106.779, "ARG_OF_PERICENTER": 271.6665, "MEAN_ANOMALY": 243.985, "EPHEMERIS_TYPE": 0, "CLASSIFICATION_TYPE": "U", "NORAD_CAT_ID": 66863, "ELEMENT_SET_NO": 999, "REV_AT_EPOCH": 180, "BSTAR": -0.0066668865, "MEAN_MOTION_DOT": -0.01380375, "MEAN_MOTION_DDOT": 0}, "tle": {"line1": "1 66863U 25281R   25349.25005787 -.01380375  00000+0 -66669-2 0  9997", "line2": "2 66863  43.0007 106.7790 0001437 271.6665 243.9850 15.84506518  1806"}}, "geometry": {"type": "Point", "coordinates": [69.62925413490191, -25.992587254132147]}}, {"type": "Feature", "properties": {"norad_id": 66864, "name": "STARLINK-36070", "group": "last-30-days", "lat": -24.530097123495974, "lon": 71.84852181255029, "alt_km": 326.7726210149722, "timestamp": "2025-12-16T03:53:25.817524+00:00", "meta": {"OBJECT_NAME": "STARLINK-36070", "OBJECT_ID": "2025-281S", "EPOCH": "2025-12-15T06:00:04.999968", "MEAN_MOTION": 15.84474562, "ECCENTRICITY": 0.00014665, "INCLINATION": 43.0007, "RA_OF_ASC_NODE": 106.772, "ARG_OF_PERICENTER": 271.2379, "MEAN_ANOMALY": 247.0304, "EPHEMERIS_TYPE": 0, "CLASSIFICATION_TYPE": "U", "NORAD_CAT_ID": 66864, "ELEMENT_SET_NO": 999, "REV_AT_EPOCH": 183, "BSTAR": -0.0067111664, "MEAN_MOTION_DOT": -0.01386495, "MEAN_MOTION_DDOT": 0}, "tle": {"line1": "1 66864U 25281S   25349.25005787 -.01386495  00000+0 -67112-2 0  9991", "line2": "2 66864  43.0007 106.7720 0001466 271.2379 247.0304 15.84474562  1835"}}, "geometry": {"type": "Point", "coordinates": [71.84852181255029, -24.530097123495974]}}, {"type": "Feature", "properties": {"norad_id": 66865, "name": "STARLINK-36117", "group": "last-30-days", "lat": -21.322340237014053, "lon": 76.39495114363167, "alt_km": 327.0331835016732, "timestamp": "2025-12-16T03:53:25.817534+00:00", "meta": {"OBJECT_NAME": "STARLINK-36117", "OBJECT_ID": "2025-281T", "EPOCH": "2025-12-15T06:00:04.999968", "MEAN_MOTION": 15.8438847, "ECCENTRICITY": 0.00014195, "INCLINATION": 43.0007, "RA_OF_ASC_NODE": 106.7582, "ARG_OF_PERICENTER": 268.7409, "MEAN_ANOMALY": 255.1538, "EPHEMERIS_TYPE": 0, "CLASSIFICATION_TYPE": "U", "NORAD_CAT_ID": 66865, "ELEMENT_SET_NO": 999, "REV_AT_EPOCH": 180, "BSTAR": -0.0068267229, "MEAN_MOTION_DOT": -0.01429972, "MEAN_MOTION_DDOT": 0}, "tle": {"line1": "1 66865U 25281T   25349.25005787 -.01429972  00000+0 -68267-2 0  9992", "line2": "2 66865  43.0007 106.7582 0001419 268.7409 255.1538 15.84388470  1803"}}, "geometry": {"type": "Point", "coordinates": [76.39495114363167, -21.322340237014053]}}]}